{
    "CCSDS_OMM_VERS": "3.0",
    "COMMENT": "GENERATED VIA SPACE-TRACK.ORG API",
    "CREATION_DATE": "2025-05-22T17:14:14",
    "ORIGINATOR": "18 SPCS",
    "OBJECT_NAME": "NAVSTAR 82 (USA 343)",
    "OBJECT_ID": "2023-009A",
    "CENTER_NAME": "EARTH",
    "REF_FRAME": "TEME",
    "TIME_SYSTEM": "UTC",
    "MEAN_ELEMENT_THEORY": "SGP4",
    "EPOCH": "2025-05-22T01:41:48.300288",
    "MEAN_MOTION": "2.00570354",
    "ECCENTRICITY": "0.00031990",
    "INCLINATION": "55.0931",
    "RA_OF_ASC_NODE": "163.8791",
    "ARG_OF_PERICENTER": "325.8864",
    "MEAN_ANOMALY": "35.5305",
    "EPHEMERIS_TYPE": "0",
    "CLASSIFICATION_TYPE": "U",
    "NORAD_CAT_ID": "55268",
    "ELEMENT_SET_NO": "999",
    "REV_AT_EPOCH": "1740",
    "BSTAR": "0.00000000000000",
    "MEAN_MOTION_DOT": "0.00000112",
    "MEAN_MOTION_DDOT": "0.0000000000000",
    "SEMIMAJOR_AXIS": "26559.752",
    "PERIOD": "717.953",
    "APOAPSIS": "20190.113",
    "PERIAPSIS": "20173.120",
    "OBJECT_TYPE": "PAYLOAD",
    "RCS_SIZE": "LARGE",
    "COUNTRY_CODE": "US",
    "LAUNCH_DATE": "2023-01-18",
    "SITE": "AFETR",
    "DECAY_DATE": null,
    "FILE": "4736220",
    "GP_ID": "288151042",
    "TLE_LINE0": "0 NAVSTAR 82 (USA 343)",
    "TLE_LINE1": "1 55268U 23009A   25142.07069792  .00000112  00000-0  00000-0 0  9998",
    "TLE_LINE2": "2 55268  55.0931 163.8791 0003199 325.8864  35.5305  2.00570354 17403"
}